{
  "type": "FeatureCollection",
  "features": [
    {
      "type": "Feature",
      "properties": {
        "norad_id": 41866,
        "name": "GOES 16",
        "group": "weather",
        "lat": 0.023785176874551398,
        "lon": 110.25152471180374,
        "alt_km": 35798.53961316671,
        "timestamp": "2025-12-11T08:58:26.756971+00:00",
        "meta_object_name": "GOES 16",
        "meta_object_id": "2016-071A",
        "meta_epoch": "2025-12-11T05:00:38.584224",
        "meta_mean_motion": 1.00271355,
        "meta_eccentricity": 0.000331,
        "meta_inclination": 0.0662,
        "meta_ra_of_asc_node": 103.7477,
        "meta_arg_of_pericenter": 158.2336,
        "meta_mean_anomaly": 148.679,
        "meta_ephemeris_type": 0,
        "meta_classification_type": "U",
        "meta_norad_cat_id": 41866,
        "meta_element_set_no": 999,
        "meta_rev_at_epoch": 3321,
        "meta_bstar": 0,
        "meta_mean_motion_dot": -8.5e-07,
        "meta_mean_motion_ddot": 0,
        "tle_line1": "1 41866U 16071A   25345.20877991 -.00000085  00000+0  00000+0 0  9994",
        "tle_line2": "2 41866   0.0662 103.7477 0003310 158.2336 148.6790  1.00271355 33213"
      },
      "geometry": {
        "type": "Point",
        "coordinates": [
          110.25152471180374,
          0.023785176874551398
        ]
      }
    },
    {
      "type": "Feature",
      "properties": {
        "norad_id": 41882,
        "name": "FENGYUN 4A",
        "group": "weather",
        "lat": -1.7955935294888052,
        "lon": -21.171452049396905,
        "alt_km": 35794.07702329717,
        "timestamp": "2025-12-11T08:58:26.756983+00:00",
        "meta_object_name": "FENGYUN 4A",
        "meta_object_id": "2016-077A",
        "meta_epoch": "2025-12-10T22:41:30.995232",
        "meta_mean_motion": 1.00270325,
        "meta_eccentricity": 0.0004947,
        "meta_inclination": 1.8448,
        "meta_ra_of_asc_node": 82.3997,
        "meta_arg_of_pericenter": 145.8044,
        "meta_mean_anomaly": 315.9271,
        "meta_ephemeris_type": 0,
        "meta_classification_type": "U",
        "meta_norad_cat_id": 41882,
        "meta_element_set_no": 999,
        "meta_rev_at_epoch": 3304,
        "meta_bstar": 0,
        "meta_mean_motion_dot": -3.51e-06,
        "meta_mean_motion_ddot": 0,
        "tle_line1": "1 41882U 16077A   25344.94549763 -.00000351  00000+0  00000+0 0  9997",
        "tle_line2": "2 41882   1.8448  82.3997 0004947 145.8044 315.9271  1.00270325 33046"
      },
      "geometry": {
        "type": "Point",
        "coordinates": [
          -21.171452049396905,
          -1.7955935294888052
        ]
      }
    },
    {
      "type": "Feature",
      "properties": {
        "norad_id": 41884,
        "name": "CYGFM05",
        "group": "weather",
        "lat": -29.72117019328363,
        "lon": 1.2571294760623164,
        "alt_km": 429.8870065593792,
        "timestamp": "2025-12-11T08:58:26.756996+00:00",
        "meta_object_name": "CYGFM05",
        "meta_object_id": "2016-078A",
        "meta_epoch": "2025-12-10T14:39:13.190112",
        "meta_mean_motion": 15.47511355,
        "meta_eccentricity": 0.0009831,
        "meta_inclination": 34.9599,
        "meta_ra_of_asc_node": 61.038,
        "meta_arg_of_pericenter": 163.8231,
        "meta_mean_anomaly": 196.2806,
        "meta_ephemeris_type": 0,
        "meta_classification_type": "U",
        "meta_norad_cat_id": 41884,
        "meta_element_set_no": 999,
        "meta_rev_at_epoch": 49943,
        "meta_bstar": 0.00053014,
        "meta_mean_motion_dot": 0.00028182,
        "meta_mean_motion_ddot": 0,
        "tle_line1": "1 41884U 16078A   25344.61056933  .00028182  00000+0  53014-3 0  9994",
        "tle_line2": "2 41884  34.9599  61.0380 0009831 163.8231 196.2806 15.47511355499437"
      },
      "geometry": {
        "type": "Point",
        "coordinates": [
          1.2571294760623164,
          -29.72117019328363
        ]
      }
    },
    {
      "type": "Feature",
      "properties": {
        "norad_id": 41885,
        "name": "CYGFM04",
        "group": "weather",
        "lat": 7.993944733906213,
        "lon": -160.73783022972793,
        "alt_km": 408.41599163184856,
        "timestamp": "2025-12-11T08:58:26.757007+00:00",
        "meta_object_name": "CYGFM04",
        "meta_object_id": "2016-078B",
        "meta_epoch": "2025-12-11T05:10:15.261024",
        "meta_mean_motion": 15.50253056,
        "meta_eccentricity": 0.0009303,
        "meta_inclination": 34.9353,
        "meta_ra_of_asc_node": 31.908,
        "meta_arg_of_pericenter": 196.8929,
        "meta_mean_anomaly": 163.1484,
        "meta_ephemeris_type": 0,
        "meta_classification_type": "U",
        "meta_norad_cat_id": 41885,
        "meta_element_set_no": 999,
        "meta_rev_at_epoch": 49970,
        "meta_bstar": 0.00052473,
        "meta_mean_motion_dot": 0.00030733,
        "meta_mean_motion_ddot": 0,
        "tle_line1": "1 41885U 16078B   25345.21545441  .00030733  00000+0  52473-3 0  9992",
        "tle_line2": "2 41885  34.9353  31.9080 0009303 196.8929 163.1484 15.50253056499703"
      },
      "geometry": {
        "type": "Point",
        "coordinates": [
          -160.73783022972793,
          7.993944733906213
        ]
      }
    },
    {
      "type": "Feature",
      "properties": {
        "norad_id": 41886,
        "name": "CYGFM02",
        "group": "weather",
        "lat": 4.464813325735029,
        "lon": -157.20815008144552,
        "alt_km": 403.5501992967984,
        "timestamp": "2025-12-11T08:58:26.757018+00:00",
        "meta_object_name": "CYGFM02",
        "meta_object_id": "2016-078C",
        "meta_epoch": "2025-12-11T05:08:50.924256",
        "meta_mean_motion": 15.51625052,
        "meta_eccentricity": 0.0010962,
        "meta_inclination": 34.9444,
        "meta_ra_of_asc_node": 30.2604,
        "meta_arg_of_pericenter": 196.6224,
        "meta_mean_anomaly": 163.4141,
        "meta_ephemeris_type": 0,
        "meta_classification_type": "U",
        "meta_norad_cat_id": 41886,
        "meta_element_set_no": 999,
        "meta_rev_at_epoch": 49983,
        "meta_bstar": 0.00053842,
        "meta_mean_motion_dot": 0.00033157,
        "meta_mean_motion_ddot": 0,
        "tle_line1": "1 41886U 16078C   25345.21447829  .00033157  00000+0  53842-3 0  9998",
        "tle_line2": "2 41886  34.9444  30.2604 0010962 196.6224 163.4141 15.51625052499835"
      },
      "geometry": {
        "type": "Point",
        "coordinates": [
          -157.20815008144552,
          4.464813325735029
        ]
      }
    },
    {
      "type": "Feature",
      "properties": {
        "norad_id": 41887,
        "name": "CYGFM01",
        "group": "weather",
        "lat": -10.589459102030164,
        "lon": 42.88083523787028,
        "alt_km": 428.748826023354,
        "timestamp": "2025-12-11T08:58:26.757028+00:00",
        "meta_object_name": "CYGFM01",
        "meta_object_id": "2016-078D",
        "meta_epoch": "2025-12-10T22:13:16.222080",
        "meta_mean_motion": 15.48103632,
        "meta_eccentricity": 0.0009424,
        "meta_inclination": 34.9432,
        "meta_ra_of_asc_node": 61.3408,
        "meta_arg_of_pericenter": 158.7693,
        "meta_mean_anomaly": 201.3421,
        "meta_ephemeris_type": 0,
        "meta_classification_type": "U",
        "meta_norad_cat_id": 41887,
        "meta_element_set_no": 999,
        "meta_rev_at_epoch": 49942,
        "meta_bstar": 0.00053215,
        "meta_mean_motion_dot": 0.00028881,
        "meta_mean_motion_ddot": 0,
        "tle_line1": "1 41887U 16078D   25344.92588220  .00028881  00000+0  53215-3 0  9999",
        "tle_line2": "2 41887  34.9432  61.3408 0009424 158.7693 201.3421 15.48103632499429"
      },
      "geometry": {
        "type": "Point",
        "coordinates": [
          42.88083523787028,
          -10.589459102030164
        ]
      }
    },
    {
      "type": "Feature",
      "properties": {
        "norad_id": 41888,
        "name": "CYGFM08",
        "group": "weather",
        "lat": 13.306574506312264,
        "lon": 61.216692646391415,
        "alt_km": 423.0770263101049,
        "timestamp": "2025-12-11T08:58:26.757040+00:00",
        "meta_object_name": "CYGFM08",
        "meta_object_id": "2016-078E",
        "meta_epoch": "2025-12-11T04:13:57.874656",
        "meta_mean_motion": 15.49317028,
        "meta_eccentricity": 0.0011383,
        "meta_inclination": 34.9462,
        "meta_ra_of_asc_node": 42.7135,
        "meta_arg_of_pericenter": 184.8432,
        "meta_mean_anomaly": 175.2181,
        "meta_ephemeris_type": 0,
        "meta_classification_type": "U",
        "meta_norad_cat_id": 41888,
        "meta_element_set_no": 999,
        "meta_rev_at_epoch": 49969,
        "meta_bstar": 0.00051808,
        "meta_mean_motion_dot": 0.0002937,
        "meta_mean_motion_ddot": 0,
        "tle_line1": "1 41888U 16078E   25345.17636429  .00029370  00000+0  51808-3 0  9993",
        "tle_line2": "2 41888  34.9462  42.7135 0011383 184.8432 175.2181 15.49317028499699"
      },
      "geometry": {
        "type": "Point",
        "coordinates": [
          61.216692646391415,
          13.306574506312264
        ]
      }
    }
  ]
}